1 25544U 98067A   26055.86355972  .00009683  00000-0  18823-3 0  9994
2 25544  51.6318 135.7592 0008386 130.0533 230.1192 15.48271528554340
1 48274U 21035A   26056.10668366  .00013576  00000-0  16634-3 0  9996
2 48274  41.4666 284.6914 0005593 191.4381 168.6331 15.60088863275644
1 49044U 21066A   26055.86355972  .00009683  00000-0  18823-3 0  9990
2 49044  51.6318 135.7592 0008386 130.0533 230.1192 15.48271528554273
1 49271U 11037PF  26055.13832825  .00030636  00000-0  46705-1 0  9996
2 49271  51.6512 341.3641 0948507  28.2793 336.6367 12.39303842211015
1 53239U 22085A   26055.91463741  .00012229  00000-0  15030-3 0  9990
2 53239  41.4667 285.8590 0005551 189.8936 170.1794 15.60082550173843
1 54216U 22143A   26055.91463741  .00012229  00000-0  15030-3 0  9991
2 54216  41.4667 285.8590 0005551 189.8936 170.1794 15.60082550158640
1 64751U 25146A   26055.86355973  .00009683  00000-0  18823-3 0  9996
2 64751  51.6318 135.7592 0008386 130.0533 230.1192 15.48271528  6750
1 64786U 25149A   26055.91463741  .00012229  00000-0  15030-3 0  9993
2 64786  41.4667 285.8590 0005551 189.8936 170.1794 15.60082550255304
1 65304U 25186A   26055.86355973  .00009683  00000-0  18823-3 0  9995
2 65304  51.6318 135.7592 0008386 130.0533 230.1192 15.48271528   119
1 65586U 25204A   26055.86355973  .00009683  00000-0  18823-3 0  9998
2 65586  51.6318 135.7592 0008386 130.0533 230.1192 15.48271528   278
1 65616U 25208A   26055.86355973  .00009683  00000-0  18823-3 0  9996
2 65616  51.6318 135.7592 0008386 130.0533 230.1192 15.48271528   227
1 65731U 98067XK  26056.18948280  .00446293  92493-4  10396-2 0  9991
2 65731  51.6188 113.0692 0007653  17.0025 343.1238 15.96432471 24890
