CCSDS_OMM_VERS = 2.0
CREATION_DATE  = 
ORIGINATOR     = 

OBJECT_NAME    = ISS (ZARYA)
OBJECT_ID      = 1998-067A
CENTER_NAME    = EARTH
REF_FRAME      = TEME
TIME_SYSTEM    = UTC
MEAN_ELEMENT_THEORY = SGP/SGP4

EPOCH          = 2026-02-24T20:43:31.559808
MEAN_MOTION    = 15.48271528
ECCENTRICITY   = .0008386
INCLINATION    = 51.6318
RA_OF_ASC_NODE = 135.7592
ARG_OF_PERICENTER = 130.0533
MEAN_ANOMALY   = 230.1192

EPHEMERIS_TYPE = 0
CLASSIFICATION_TYPE = U
NORAD_CAT_ID   = 25544
ELEMENT_SET_NO = 999
REV_AT_EPOCH   = 55434
BSTAR          = .18823E-3
MEAN_MOTION_DOT = .9683E-4
MEAN_MOTION_DDOT = 0

CCSDS_OMM_VERS = 2.0
CREATION_DATE  = 
ORIGINATOR     = 

OBJECT_NAME    = CSS (TIANHE)
OBJECT_ID      = 2021-035A
CENTER_NAME    = EARTH
REF_FRAME      = TEME
TIME_SYSTEM    = UTC
MEAN_ELEMENT_THEORY = SGP/SGP4

EPOCH          = 2026-02-25T02:33:37.468224
MEAN_MOTION    = 15.60088863
ECCENTRICITY   = .0005593
INCLINATION    = 41.4666
RA_OF_ASC_NODE = 284.6914
ARG_OF_PERICENTER = 191.4381
MEAN_ANOMALY   = 168.6331

EPHEMERIS_TYPE = 0
CLASSIFICATION_TYPE = U
NORAD_CAT_ID   = 48274
ELEMENT_SET_NO = 999
REV_AT_EPOCH   = 27564
BSTAR          = .16634E-3
MEAN_MOTION_DOT = .13576E-3
MEAN_MOTION_DDOT = 0

CCSDS_OMM_VERS = 2.0
CREATION_DATE  = 
ORIGINATOR     = 

OBJECT_NAME    = ISS (NAUKA)
OBJECT_ID      = 2021-066A
CENTER_NAME    = EARTH
REF_FRAME      = TEME
TIME_SYSTEM    = UTC
MEAN_ELEMENT_THEORY = SGP/SGP4

EPOCH          = 2026-02-24T20:43:31.559808
MEAN_MOTION    = 15.48271528
ECCENTRICITY   = .0008386
INCLINATION    = 51.6318
RA_OF_ASC_NODE = 135.7592
ARG_OF_PERICENTER = 130.0533
MEAN_ANOMALY   = 230.1192

EPHEMERIS_TYPE = 0
CLASSIFICATION_TYPE = U
NORAD_CAT_ID   = 49044
ELEMENT_SET_NO = 999
REV_AT_EPOCH   = 55427
BSTAR          = .18823E-3
MEAN_MOTION_DOT = .9683E-4
MEAN_MOTION_DDOT = 0

CCSDS_OMM_VERS = 2.0
CREATION_DATE  = 
ORIGINATOR     = 

OBJECT_NAME    = FREGAT DEB
OBJECT_ID      = 2011-037PF
CENTER_NAME    = EARTH
REF_FRAME      = TEME
TIME_SYSTEM    = UTC
MEAN_ELEMENT_THEORY = SGP/SGP4

EPOCH          = 2026-02-24T03:19:11.560800
MEAN_MOTION    = 12.39303842
ECCENTRICITY   = .09485072
INCLINATION    = 51.6512
RA_OF_ASC_NODE = 341.3641
ARG_OF_PERICENTER = 28.2793
MEAN_ANOMALY   = 336.6367

EPHEMERIS_TYPE = 0
CLASSIFICATION_TYPE = U
NORAD_CAT_ID   = 49271
ELEMENT_SET_NO = 999
REV_AT_EPOCH   = 21101
BSTAR          = .46705261E-1
MEAN_MOTION_DOT = .30636E-3
MEAN_MOTION_DDOT = 0

CCSDS_OMM_VERS = 2.0
CREATION_DATE  = 
ORIGINATOR     = 

OBJECT_NAME    = CSS (WENTIAN)
OBJECT_ID      = 2022-085A
CENTER_NAME    = EARTH
REF_FRAME      = TEME
TIME_SYSTEM    = UTC
MEAN_ELEMENT_THEORY = SGP/SGP4

EPOCH          = 2026-02-24T21:57:04.672224
MEAN_MOTION    = 15.60082550
ECCENTRICITY   = .00055515
INCLINATION    = 41.4667
RA_OF_ASC_NODE = 285.8590
ARG_OF_PERICENTER = 189.8936
MEAN_ANOMALY   = 170.1794

EPHEMERIS_TYPE = 0
CLASSIFICATION_TYPE = U
NORAD_CAT_ID   = 53239
ELEMENT_SET_NO = 999
REV_AT_EPOCH   = 17384
BSTAR          = .15030473E-3
MEAN_MOTION_DOT = .12229E-3
MEAN_MOTION_DDOT = 0

CCSDS_OMM_VERS = 2.0
CREATION_DATE  = 
ORIGINATOR     = 

OBJECT_NAME    = CSS (MENGTIAN)
OBJECT_ID      = 2022-143A
CENTER_NAME    = EARTH
REF_FRAME      = TEME
TIME_SYSTEM    = UTC
MEAN_ELEMENT_THEORY = SGP/SGP4

EPOCH          = 2026-02-24T21:57:04.672224
MEAN_MOTION    = 15.60082550
ECCENTRICITY   = .00055515
INCLINATION    = 41.4667
RA_OF_ASC_NODE = 285.8590
ARG_OF_PERICENTER = 189.8936
MEAN_ANOMALY   = 170.1794

EPHEMERIS_TYPE = 0
CLASSIFICATION_TYPE = U
NORAD_CAT_ID   = 54216
ELEMENT_SET_NO = 999
REV_AT_EPOCH   = 15864
BSTAR          = .15030473E-3
MEAN_MOTION_DOT = .12229E-3
MEAN_MOTION_DDOT = 0

CCSDS_OMM_VERS = 2.0
CREATION_DATE  = 
ORIGINATOR     = 

OBJECT_NAME    = PROGRESS-MS 31
OBJECT_ID      = 2025-146A
CENTER_NAME    = EARTH
REF_FRAME      = TEME
TIME_SYSTEM    = UTC
MEAN_ELEMENT_THEORY = SGP/SGP4

EPOCH          = 2026-02-24T20:43:31.560672
MEAN_MOTION    = 15.48271528
ECCENTRICITY   = .00083861
INCLINATION    = 51.6318
RA_OF_ASC_NODE = 135.7592
ARG_OF_PERICENTER = 130.0533
MEAN_ANOMALY   = 230.1192

EPHEMERIS_TYPE = 0
CLASSIFICATION_TYPE = U
NORAD_CAT_ID   = 64751
ELEMENT_SET_NO = 999
REV_AT_EPOCH   = 675
BSTAR          = .18823051E-3
MEAN_MOTION_DOT = .9683E-4
MEAN_MOTION_DDOT = 0

CCSDS_OMM_VERS = 2.0
CREATION_DATE  = 
ORIGINATOR     = 

OBJECT_NAME    = TIANZHOU-9
OBJECT_ID      = 2025-149A
CENTER_NAME    = EARTH
REF_FRAME      = TEME
TIME_SYSTEM    = UTC
MEAN_ELEMENT_THEORY = SGP/SGP4

EPOCH          = 2026-02-24T21:57:04.672224
MEAN_MOTION    = 15.60082550
ECCENTRICITY   = .00055515
INCLINATION    = 41.4667
RA_OF_ASC_NODE = 285.8590
ARG_OF_PERICENTER = 189.8936
MEAN_ANOMALY   = 170.1794

EPHEMERIS_TYPE = 0
CLASSIFICATION_TYPE = U
NORAD_CAT_ID   = 64786
ELEMENT_SET_NO = 999
REV_AT_EPOCH   = 25530
BSTAR          = .15030473E-3
MEAN_MOTION_DOT = .12229E-3
MEAN_MOTION_DDOT = 0

CCSDS_OMM_VERS = 2.0
CREATION_DATE  = 
ORIGINATOR     = 

OBJECT_NAME    = DRAGON CRS-33
OBJECT_ID      = 2025-186A
CENTER_NAME    = EARTH
REF_FRAME      = TEME
TIME_SYSTEM    = UTC
MEAN_ELEMENT_THEORY = SGP/SGP4

EPOCH          = 2026-02-24T20:43:31.560672
MEAN_MOTION    = 15.48271528
ECCENTRICITY   = .00083861
INCLINATION    = 51.6318
RA_OF_ASC_NODE = 135.7592
ARG_OF_PERICENTER = 130.0533
MEAN_ANOMALY   = 230.1192

EPHEMERIS_TYPE = 0
CLASSIFICATION_TYPE = U
NORAD_CAT_ID   = 65304
ELEMENT_SET_NO = 999
REV_AT_EPOCH   = 11
BSTAR          = .18823051E-3
MEAN_MOTION_DOT = .9683E-4
MEAN_MOTION_DDOT = 0

CCSDS_OMM_VERS = 2.0
CREATION_DATE  = 
ORIGINATOR     = 

OBJECT_NAME    = PROGRESS-MS 32
OBJECT_ID      = 2025-204A
CENTER_NAME    = EARTH
REF_FRAME      = TEME
TIME_SYSTEM    = UTC
MEAN_ELEMENT_THEORY = SGP/SGP4

EPOCH          = 2026-02-24T20:43:31.560672
MEAN_MOTION    = 15.48271528
ECCENTRICITY   = .00083861
INCLINATION    = 51.6318
RA_OF_ASC_NODE = 135.7592
ARG_OF_PERICENTER = 130.0533
MEAN_ANOMALY   = 230.1192

EPHEMERIS_TYPE = 0
CLASSIFICATION_TYPE = U
NORAD_CAT_ID   = 65586
ELEMENT_SET_NO = 999
REV_AT_EPOCH   = 27
BSTAR          = .18823051E-3
MEAN_MOTION_DOT = .9683E-4
MEAN_MOTION_DDOT = 0

CCSDS_OMM_VERS = 2.0
CREATION_DATE  = 
ORIGINATOR     = 

OBJECT_NAME    = CYGNUS NG-23
OBJECT_ID      = 2025-208A
CENTER_NAME    = EARTH
REF_FRAME      = TEME
TIME_SYSTEM    = UTC
MEAN_ELEMENT_THEORY = SGP/SGP4

EPOCH          = 2026-02-24T20:43:31.560672
MEAN_MOTION    = 15.48271528
ECCENTRICITY   = .00083861
INCLINATION    = 51.6318
RA_OF_ASC_NODE = 135.7592
ARG_OF_PERICENTER = 130.0533
MEAN_ANOMALY   = 230.1192

EPHEMERIS_TYPE = 0
CLASSIFICATION_TYPE = U
NORAD_CAT_ID   = 65616
ELEMENT_SET_NO = 999
REV_AT_EPOCH   = 22
BSTAR          = .18823051E-3
MEAN_MOTION_DOT = .9683E-4
MEAN_MOTION_DDOT = 0

CCSDS_OMM_VERS = 2.0
CREATION_DATE  = 
ORIGINATOR     = 

OBJECT_NAME    = ISS OBJECT XK
OBJECT_ID      = 1998-067XK
CENTER_NAME    = EARTH
REF_FRAME      = TEME
TIME_SYSTEM    = UTC
MEAN_ELEMENT_THEORY = SGP/SGP4

EPOCH          = 2026-02-25T04:32:51.313920
MEAN_MOTION    = 15.96432471
ECCENTRICITY   = .0007653
INCLINATION    = 51.6188
RA_OF_ASC_NODE = 113.0692
ARG_OF_PERICENTER = 17.0025
MEAN_ANOMALY   = 343.1238

EPHEMERIS_TYPE = 0
CLASSIFICATION_TYPE = U
NORAD_CAT_ID   = 65731
ELEMENT_SET_NO = 999
REV_AT_EPOCH   = 2489
BSTAR          = .10396E-2
MEAN_MOTION_DOT = .446293E-2
MEAN_MOTION_DDOT = .92493E-4

